STARLINK-3701           
1 52095U 22029H   25259.12334102  .00013274  00000+0  84979-3 0  9991
2 52095  53.2174 152.7783 0001444  92.3125 267.8033 15.08871219194301
STARLINK-3717           
1 52096U 22029J   25259.36713605  .00011420  00000+0  73403-3 0  9998
2 52096  53.2159 141.6859 0001294  83.3088 276.8051 15.08860081194469
STARLINK-3665           
1 52098U 22029L   25259.39196761  .00000595  00000+0  55445-4 0  9999
2 52098  53.2176 151.5730 0001373  86.6132 273.5017 15.08847173194342
STARLINK-3702           
1 52100U 22029N   25259.11965652  .00000415  00000+0  44168-4 0  9997
2 52100  53.2183 152.7952 0001601  96.4664 263.6510 15.08840726194307
STARLINK-3703           
1 52101U 22029P   25259.39567007  .00000946  00000+0  77515-4 0  9991
2 52101  53.2167 151.7477 0001334  89.1258 270.9887 15.08847739194334
STARLINK-3709           
1 52102U 22029Q   25259.38651624 -.00000403  00000+0 -72302-5 0  9990
2 52102  53.2173 141.5977 0001380  82.6069 277.5080 15.08826758194474
STARLINK-3705           
1 52103U 22029R   25258.96233395  .00000076  00000+0  22858-4 0  9999
2 52103  53.2168 143.5006 0001447  92.8681 267.2477 15.08840487194405
STARLINK-3706           
1 52105U 22029T   25258.95593031  .00001145  00000+0  90038-4 0  9999
2 52105  53.2164 143.5321 0001363  87.6188 272.4960 15.08843871194409
STARLINK-3670           
1 52106U 22029U   25259.43980791  .00001566  00000+0  11641-3 0  9996
2 52106  53.2157 151.3599 0001367  89.3766 270.7383 15.08848348194348
STARLINK-3658           
1 52107U 22029V   25259.41497452 -.00000122  00000+0  10400-4 0  9993
2 52107  53.2137 141.4739 0001150  80.7336 279.3786 15.08842257194470
STARLINK-3698           
1 52108U 22029W   25258.95864883  .00001959  00000+0  14107-3 0  9993
2 52108  53.2169 143.5193 0001582  92.9878 267.1295 15.08850844194402
STARLINK-3687           
1 52110U 22029Y   25258.95498634 -.00000784  00000+0 -31184-4 0  9995
2 52110  53.2160 143.5357 0001471  92.9206 267.1954 15.08831383194409
STARLINK-3708           
1 52111U 22029Z   25259.40393414 -.00000667  00000+0 -23802-4 0  9995
2 52111  53.2178 141.5229 0001445  86.1080 274.0078 15.08845620194471
STARLINK-3734           
1 52112U 22029AA  25259.41129275  .00002572  00000+0  17956-3 0  9996
2 52112  53.2159 141.4885 0001412  90.6069 269.5085 15.08849214194479
STARLINK-3736           
1 52113U 22029AB  25259.39657390  .00000923  00000+0  76040-4 0  9996
2 52113  53.2169 141.5540 0001455  80.2621 279.8535 15.08844697194470
STARLINK-3737           
1 52114U 22029AC  25259.40761579  .00000286  00000+0  36040-4 0  9992
2 52114  53.2167 141.5048 0001368  90.8758 269.2391 15.08841844194477
