[{"OBJECT_NAME":"STARLINK-3701","OBJECT_ID":"2022-029H","EPOCH":"2025-09-16T02:57:36.664128","MEAN_MOTION":15.08871219,"ECCENTRICITY":0.00014447,"INCLINATION":53.2174,"RA_OF_ASC_NODE":152.7783,"ARG_OF_PERICENTER":92.3125,"MEAN_ANOMALY":267.8033,"EPHEMERIS_TYPE":0,"CLASSIFICATION_TYPE":"U","NORAD_CAT_ID":52095,"ELEMENT_SET_NO":999,"REV_AT_EPOCH":19430,"BSTAR":0.00084978535,"MEAN_MOTION_DOT":0.00013274,"MEAN_MOTION_DDOT":0},{"OBJECT_NAME":"STARLINK-3717","OBJECT_ID":"2022-029J","EPOCH":"2025-09-16T08:48:40.554720","MEAN_MOTION":15.08860081,"ECCENTRICITY":0.0001294,"INCLINATION":53.2159,"RA_OF_ASC_NODE":141.6859,"ARG_OF_PERICENTER":83.3088,"MEAN_ANOMALY":276.8051,"EPHEMERIS_TYPE":0,"CLASSIFICATION_TYPE":"U","NORAD_CAT_ID":52096,"ELEMENT_SET_NO":999,"REV_AT_EPOCH":19446,"BSTAR":0.00073402934,"MEAN_MOTION_DOT":0.0001142,"MEAN_MOTION_DDOT":0},{"OBJECT_NAME":"STARLINK-3665","OBJECT_ID":"2022-029L","EPOCH":"2025-09-16T09:24:26.001504","MEAN_MOTION":15.08847173,"ECCENTRICITY":0.00013739,"INCLINATION":53.2176,"RA_OF_ASC_NODE":151.573,"ARG_OF_PERICENTER":86.6132,"MEAN_ANOMALY":273.5017,"EPHEMERIS_TYPE":0,"CLASSIFICATION_TYPE":"U","NORAD_CAT_ID":52098,"ELEMENT_SET_NO":999,"REV_AT_EPOCH":19434,"BSTAR":5.5444554e-5,"MEAN_MOTION_DOT":5.95e-6,"MEAN_MOTION_DDOT":0},{"OBJECT_NAME":"STARLINK-3702","OBJECT_ID":"2022-029N","EPOCH":"2025-09-16T02:52:18.323328","MEAN_MOTION":15.08840726,"ECCENTRICITY":0.00016013,"INCLINATION":53.2183,"RA_OF_ASC_NODE":152.7952,"ARG_OF_PERICENTER":96.4664,"MEAN_ANOMALY":263.651,"EPHEMERIS_TYPE":0,"CLASSIFICATION_TYPE":"U","NORAD_CAT_ID":52100,"ELEMENT_SET_NO":999,"REV_AT_EPOCH":19430,"BSTAR":4.4168355e-5,"MEAN_MOTION_DOT":4.15e-6,"MEAN_MOTION_DDOT":0},{"OBJECT_NAME":"STARLINK-3703","OBJECT_ID":"2022-029P","EPOCH":"2025-09-16T09:29:45.894048","MEAN_MOTION":15.08847739,"ECCENTRICITY":0.00013342,"INCLINATION":53.2167,"RA_OF_ASC_NODE":151.7477,"ARG_OF_PERICENTER":89.1258,"MEAN_ANOMALY":270.9887,"EPHEMERIS_TYPE":0,"CLASSIFICATION_TYPE":"U","NORAD_CAT_ID":52101,"ELEMENT_SET_NO":999,"REV_AT_EPOCH":19433,"BSTAR":7.7514717e-5,"MEAN_MOTION_DOT":9.46e-6,"MEAN_MOTION_DDOT":0},{"OBJECT_NAME":"STARLINK-3709","OBJECT_ID":"2022-029Q","EPOCH":"2025-09-16T09:16:35.003136","MEAN_MOTION":15.08826758,"ECCENTRICITY":0.00013801,"INCLINATION":53.2173,"RA_OF_ASC_NODE":141.5977,"ARG_OF_PERICENTER":82.6069,"MEAN_ANOMALY":277.508,"EPHEMERIS_TYPE":0,"CLASSIFICATION_TYPE":"U","NORAD_CAT_ID":52102,"ELEMENT_SET_NO":999,"REV_AT_EPOCH":19447,"BSTAR":-7.230202e-6,"MEAN_MOTION_DOT":-4.03e-6,"MEAN_MOTION_DDOT":0},{"OBJECT_NAME":"STARLINK-3705","OBJECT_ID":"2022-029R","EPOCH":"2025-09-15T23:05:45.653280","MEAN_MOTION":15.08840487,"ECCENTRICITY":0.00014473,"INCLINATION":53.2168,"RA_OF_ASC_NODE":143.5006,"ARG_OF_PERICENTER":92.8681,"MEAN_ANOMALY":267.2477,"EPHEMERIS_TYPE":0,"CLASSIFICATION_TYPE":"U","NORAD_CAT_ID":52103,"ELEMENT_SET_NO":999,"REV_AT_EPOCH":19440,"BSTAR":2.285808e-5,"MEAN_MOTION_DOT":7.6e-7,"MEAN_MOTION_DDOT":0},{"OBJECT_NAME":"STARLINK-3706","OBJECT_ID":"2022-029T","EPOCH":"2025-09-15T22:56:32.378784","MEAN_MOTION":15.08843871,"ECCENTRICITY":0.00013638,"INCLINATION":53.2164,"RA_OF_ASC_NODE":143.5321,"ARG_OF_PERICENTER":87.6188,"MEAN_ANOMALY":272.496,"EPHEMERIS_TYPE":0,"CLASSIFICATION_TYPE":"U","NORAD_CAT_ID":52105,"ELEMENT_SET_NO":999,"REV_AT_EPOCH":19440,"BSTAR":9.0037544e-5,"MEAN_MOTION_DOT":1.145e-5,"MEAN_MOTION_DDOT":0},{"OBJECT_NAME":"STARLINK-3670","OBJECT_ID":"2022-029U","EPOCH":"2025-09-16T10:33:19.403424","MEAN_MOTION":15.08848348,"ECCENTRICITY":0.00013677,"INCLINATION":53.2157,"RA_OF_ASC_NODE":151.3599,"ARG_OF_PERICENTER":89.3766,"MEAN_ANOMALY":270.7383,"EPHEMERIS_TYPE":0,"CLASSIFICATION_TYPE":"U","NORAD_CAT_ID":52106,"ELEMENT_SET_NO":999,"REV_AT_EPOCH":19434,"BSTAR":0.00011640847,"MEAN_MOTION_DOT":1.566e-5,"MEAN_MOTION_DDOT":0},{"OBJECT_NAME":"STARLINK-3658","OBJECT_ID":"2022-029V","EPOCH":"2025-09-16T09:57:33.798528","MEAN_MOTION":15.08842257,"ECCENTRICITY":0.00011509,"INCLINATION":53.2137,"RA_OF_ASC_NODE":141.4739,"ARG_OF_PERICENTER":80.7336,"MEAN_ANOMALY":279.3786,"EPHEMERIS_TYPE":0,"CLASSIFICATION_TYPE":"U","NORAD_CAT_ID":52107,"ELEMENT_SET_NO":999,"REV_AT_EPOCH":19447,"BSTAR":1.0400416e-5,"MEAN_MOTION_DOT":-1.22e-6,"MEAN_MOTION_DDOT":0},{"OBJECT_NAME":"STARLINK-3698","OBJECT_ID":"2022-029W","EPOCH":"2025-09-15T23:00:27.258912","MEAN_MOTION":15.08850844,"ECCENTRICITY":0.00015828,"INCLINATION":53.2169,"RA_OF_ASC_NODE":143.5193,"ARG_OF_PERICENTER":92.9878,"MEAN_ANOMALY":267.1295,"EPHEMERIS_TYPE":0,"CLASSIFICATION_TYPE":"U","NORAD_CAT_ID":52108,"ELEMENT_SET_NO":999,"REV_AT_EPOCH":19440,"BSTAR":0.00014107216,"MEAN_MOTION_DOT":1.959e-5,"MEAN_MOTION_DDOT":0},{"OBJECT_NAME":"STARLINK-3687","OBJECT_ID":"2022-029Y","EPOCH":"2025-09-15T22:55:10.819776","MEAN_MOTION":15.08831383,"ECCENTRICITY":0.00014711,"INCLINATION":53.216,"RA_OF_ASC_NODE":143.5357,"ARG_OF_PERICENTER":92.9206,"MEAN_ANOMALY":267.1954,"EPHEMERIS_TYPE":0,"CLASSIFICATION_TYPE":"U","NORAD_CAT_ID":52110,"ELEMENT_SET_NO":999,"REV_AT_EPOCH":19440,"BSTAR":-3.1183915e-5,"MEAN_MOTION_DOT":-7.84e-6,"MEAN_MOTION_DDOT":0},{"OBJECT_NAME":"STARLINK-3708","OBJECT_ID":"2022-029Z","EPOCH":"2025-09-16T09:41:39.909696","MEAN_MOTION":15.0884562,"ECCENTRICITY":0.0001445,"INCLINATION":53.2178,"RA_OF_ASC_NODE":141.5229,"ARG_OF_PERICENTER":86.108,"MEAN_ANOMALY":274.0078,"EPHEMERIS_TYPE":0,"CLASSIFICATION_TYPE":"U","NORAD_CAT_ID":52111,"ELEMENT_SET_NO":999,"REV_AT_EPOCH":19447,"BSTAR":-2.3802193e-5,"MEAN_MOTION_DOT":-6.67e-6,"MEAN_MOTION_DDOT":0},{"OBJECT_NAME":"STARLINK-3734","OBJECT_ID":"2022-029AA","EPOCH":"2025-09-16T09:52:15.693600","MEAN_MOTION":15.08849214,"ECCENTRICITY":0.00014124,"INCLINATION":53.2159,"RA_OF_ASC_NODE":141.4885,"ARG_OF_PERICENTER":90.6069,"MEAN_ANOMALY":269.5085,"EPHEMERIS_TYPE":0,"CLASSIFICATION_TYPE":"U","NORAD_CAT_ID":52112,"ELEMENT_SET_NO":999,"REV_AT_EPOCH":19447,"BSTAR":0.00017955539,"MEAN_MOTION_DOT":2.572e-5,"MEAN_MOTION_DDOT":0},{"OBJECT_NAME":"STARLINK-3736","OBJECT_ID":"2022-029AB","EPOCH":"2025-09-16T09:31:03.984960","MEAN_MOTION":15.08844697,"ECCENTRICITY":0.0001455,"INCLINATION":53.2169,"RA_OF_ASC_NODE":141.554,"ARG_OF_PERICENTER":80.2621,"MEAN_ANOMALY":279.8535,"EPHEMERIS_TYPE":0,"CLASSIFICATION_TYPE":"U","NORAD_CAT_ID":52113,"ELEMENT_SET_NO":999,"REV_AT_EPOCH":19447,"BSTAR":7.6039649e-5,"MEAN_MOTION_DOT":9.23e-6,"MEAN_MOTION_DDOT":0},{"OBJECT_NAME":"STARLINK-3737","OBJECT_ID":"2022-029AC","EPOCH":"2025-09-16T09:46:58.004256","MEAN_MOTION":15.08841844,"ECCENTRICITY":0.00013685,"INCLINATION":53.2167,"RA_OF_ASC_NODE":141.5048,"ARG_OF_PERICENTER":90.8758,"MEAN_ANOMALY":269.2391,"EPHEMERIS_TYPE":0,"CLASSIFICATION_TYPE":"U","NORAD_CAT_ID":52114,"ELEMENT_SET_NO":999,"REV_AT_EPOCH":19447,"BSTAR":3.6040159e-5,"MEAN_MOTION_DOT":2.86e-6,"MEAN_MOTION_DDOT":0}]
